OBJECT_NAME,OBJECT_ID,EPOCH,MEAN_MOTION,ECCENTRICITY,INCLINATION,RA_OF_ASC_NODE,ARG_OF_PERICENTER,MEAN_ANOMALY,EPHEMERIS_TYPE,CLASSIFICATION_TYPE,NORAD_CAT_ID,ELEMENT_SET_NO,REV_AT_EPOCH,BSTAR,MEAN_MOTION_DOT,MEAN_MOTION_DDOT
CARTOSAT-2E,2017-036C,2026-06-29T11:49:34.176288,15.19261711,.0002284,97.4278,240.0924,256.7543,103.3437,0,U,42767,999,50001,.25485E-3,.5306E-4,0
IRIDIUM 113,2017-039A,2026-06-29T09:07:19.190208,14.34217189,.0002111,86.3980,317.0818,89.7563,270.3874,0,U,42803,999,47293,-.18618E-4,-.32E-6,0
NORSAT 2,2017-042D,2026-06-29T10:52:37.597152,15.22154137,.0009526,97.4037,353.7006,16.7370,343.4179,0,U,42828,999,48960,.40362E-3,.9203E-4,0
TECHNOSAT,2017-042E,2026-06-29T09:59:39.600384,15.05030144,.0019006,97.4291,337.6102,55.8906,304.4120,0,U,42829,999,48854,.17578E-3,.2446E-4,0
FLYING LAPTOP,2017-042G,2026-06-29T12:24:19.036800,15.01224086,.001997,97.4736,335.5789,82.2271,278.1220,0,U,42831,999,48830,.29208E-3,.3708E-4,0
WNISAT 1R,2017-042L,2026-06-29T10:02:24.112032,15.01811720,.0012022,97.4833,336.1035,110.8531,249.3983,0,U,42835,999,48834,.16848E-3,.2142E-4,0
LEMUR-2-GREENBERG,2017-042N,2026-06-29T12:01:40.160928,15.31697456,.0007461,97.3814,1.0719,326.6875,33.3896,0,U,42837,999,49027,.48377E-3,.14753E-3,0
LEMUR-2-FURIAUS,2017-042R,2026-06-29T10:30:55.364256,15.30644210,.0007286,97.3767,358.9368,29.0903,331.0743,0,U,42840,999,49008,.54311E-3,.16041E-3,0
CORVUS BC2,2017-042X,2026-06-29T10:01:26.719968,15.06367764,.0014409,97.4066,341.2927,72.8070,287.4733,0,U,42846,999,48890,.17803E-3,.2566E-4,0
CORVUS BC1,2017-042Y,2026-06-29T09:51:44.644032,15.06531870,.0012791,97.4096,342.1081,51.2824,308.9546,0,U,42847,999,48893,.22556E-3,.3281E-4,0
VRSS-2,2017-060A,2026-06-29T13:11:17.015136,14.81216534,.0018561,97.6509,217.7195,61.8913,298.4174,0,U,42954,999,47028,.1746E-3,.1313E-4,0
MOHAMMED VI-A,2017-070A,2026-06-29T12:57:38.255040,14.77083567,.0001203,97.9562,252.7010,79.7929,280.3416,0,U,43005,999,46580,.59588E-4,.37E-5,0
FENGYUN 3D,2017-072A,2026-06-29T13:13:18.782976,14.19742690,.0002218,99.0125,155.1967,41.8916,318.2429,0,U,43010,999,44674,.16945E-3,.312E-5,0
NOAA 20 (JPSS-1),2017-073A,2026-06-29T11:27:28.598112,14.19513872,.0000739,98.7773,119.8308,135.2363,224.8873,0,U,43013,999,44621,.40173E-4,.4E-6,0
MAKERSAT 0,2017-073D,2026-06-28T14:36:00.010080,15.32461094,.01048301,97.4612,62.2183,231.6102,127.5690,0,U,43016,999,46821,.43423246E-3,.16135E-3,0
RADFXSAT (FOX-1B),2017-073E,2026-06-28T14:02:06.239616,15.12867010,.01485354,97.4690,46.5670,289.4918,69.0319,0,U,43017,999,46711,.29239469E-3,.6671E-4,0
JILIN-1 04,2017-074A,2026-06-29T12:58:56.136000,15.42757672,.0004938,97.4872,290.4850,141.3085,218.8516,0,U,43022,999,47617,.2772E-3,.12037E-3,0
JILIN-1 05,2017-074B,2026-06-29T12:22:10.889184,15.34063118,.0005462,97.4878,286.8374,170.1754,189.9596,0,U,43023,999,47589,.24213E-3,.7903E-4,0
JILIN-1 06,2017-074C,2026-06-29T13:17:34.609056,15.33837232,.0006809,97.4804,283.8701,183.7178,176.4015,0,U,43024,999,47573,.18407E-3,.5946E-4,0
IRIDIUM 116,2017-083C,2026-06-29T10:11:15.187776,14.34217591,.0002221,86.3975,316.8846,101.3039,258.8406,0,U,43072,999,44592,-.2166E-5,.14E-6,0
IRIDIUM 130,2017-083D,2026-06-29T11:06:03.061152,14.34217651,.0002021,86.3983,317.1452,97.6305,262.5120,0,U,43073,999,44587,.27086E-4,.96E-6,0
LKW-2,2017-084A,2026-06-29T13:11:25.249056,15.26502864,.0002409,97.1187,219.7681,146.6873,213.4518,0,U,43080,999,47357,.35144E-3,.9109E-4,0
SUPERVIEW-1 03,2018-002A,2026-06-29T12:22:51.651840,15.39692692,.0047503,97.3141,265.3366,135.9830,224.5215,0,U,43099,999,47026,.45401E-3,.18591E-3,0
LKW-3,2018-006A,2026-06-29T12:02:49.713792,15.35472057,.0001811,97.6615,341.5587,249.6514,110.4535,0,U,43146,999,47060,.19562E-3,.6656E-4,0
ASNARO-2,2018-007A,2026-06-29T01:59:07.573920,15.22396521,.0001655,97.3969,186.8239,87.8222,272.3204,0,U,43152,999,46922,.10326E-3,.2316E-4,0
JILIN-1 07,2018-008E,2026-06-29T13:05:34.990368,15.34923787,.0008699,97.1763,200.1452,27.1721,332.9976,0,U,43159,999,46689,.24509E-3,.8234E-4,0
JILIN-1 08,2018-008F,2026-06-29T11:44:02.469408,15.33847574,.0007212,97.1797,199.3933,45.5237,314.6594,0,U,43160,999,46683,.17236E-3,.557E-4,0
